HST                     
1 20580U 90037B   26188.74350551  .00004421  00000+0  13593-3 0  9993
2 20580  28.4736 300.0580 0001929  32.3294 327.7420 15.31004191791723
POLAR                   
1 23802U 96013A   26188.06318554  .00000202  00000+0  00000+0 0  9993
2 23802  79.8793 226.8164 6490473 208.3961  91.1712  1.29846098145111
SWAS                    
1 25560U 98071A   26188.48954360  .00001849  00000+0  12092-3 0  9995
2 25560  69.8940 175.1581 0008163 238.7721 121.2643 15.09718440500331
CXO                     
1 25867U 99040B   26190.53346781  .00000720  00000+0  00000+0 0  9992
2 25867  56.4882 116.0417 7806470 310.0470   0.4589  0.37804829 17409
XMM-NEWTON              
1 25989U 99066A   26191.28725897  .00000104  00000+0  00000+0 0  9993
2 25989  64.3678 282.6911 4669317  64.5120   0.0817  0.50123471 23118
TERRA                   
1 25994U 99068A   26189.18153823  .00000284  00000+0  66815-4 0  9991
2 25994  97.9444 237.8942 0003081 136.7787 300.5111 14.61119919412677
CLUSTER II-FM7 (SAMBA)  
1 26410U 00041A   26190.44939577  .00010356  00000+0  00000+0 0  9997
2 26410 149.8605  54.9301 9081562 272.3489 359.6364  0.44874124 20413
CLUSTER II-FM8 (TANGO)  
1 26464U 00045B   26188.69917747  .00008173  00000+0  00000+0 0  9993
2 26464 150.0796  55.7437 9084651 272.9971   2.3486  0.44419860 20408
ODIN                    
1 26702U 01007A   26187.98430022  .00262243  00000+0  10929-2 0  9998
2 26702  97.3761 230.3091 0005298 141.5779 218.5869 15.85006600392529
TIMED                   
1 26998U 01055B   26188.94915069  .00000810  00000+0  77030-4 0  9992
2 26998  74.0660 193.2129 0002043 308.0736  52.0264 14.95333978333923
CORIOLIS                
1 27640U 03001A   26188.98433875  .00000068  00000+0  52545-4 0  9993
2 27640  98.7130 195.5517 0014620 148.9286 211.2758 14.19950332217174
SORCE                   
1 27651U 03004A   26188.99276253  .00001819  00000+0  14049-3 0  9995
2 27651  39.9897 142.9625 0018036 205.5730 154.4173 15.03816254275034
MOST                    
1 27843U 03031D   26188.97830720  .00000041  00000+0  39032-4 0  9997
2 27843  98.7048 196.4141 0009661 185.8056 174.3011 14.21326686193664
SCISAT 1                
1 27858U 03036A   26189.15966562  .00000538  00000+0  73307-4 0  9997
2 27858  73.9301 129.6734 0007728 199.0081 161.0808 14.81473122234555
SWIFT                   
1 28485U 04047A   26186.87627307  .00061981  00000+0  47565-3 0  9999
2 28485  20.5532  40.5436 0000897 245.9890 114.0463 15.70286946189802
HINODE (SOLAR-B)        
1 29479U 06041A   26189.03354510  .00000502  00000+0  94524-4 0  9993
2 29479  98.0546 204.8787 0016496 218.0392 141.9649 14.68651712 57931
SHIJIAN-6 02A (SJ-6 02A)
1 29505U 06046A   26189.19837451  .00004143  00000+0  21198-3 0  9996
2 29505  97.6346 230.4241 0004503  78.7233 281.4506 15.17193116 75458
SHIJIAN-6 02B (SJ-6 02B)
1 29506U 06046B   26189.20649244  .00000870  00000+0  72009-4 0  9991
2 29506  97.7152 218.1354 0014263 359.4206   0.6999 15.01429099 73894
FGRST (GLAST)           
1 33053U 08029A   26188.98456363  .00002487  00000+0  86124-4 0  9997
2 33053  25.5825  60.0623 0007872 209.8963 150.1126 15.24048577999018
SDO                     
1 36395U 10005A   26188.25007061 -.00000076  00000+0  00000+0 0  9990
2 36395  34.6901  86.0392 0001652  55.2327 131.6689  1.00269725 60267
CRYOSAT 2               
1 36508U 10013A   26189.17107705  .00000136  00000+0  32961-4 0  9995
2 36508  92.0359 282.4029 0002291  97.7838 262.3630 14.51896658861128
X-SAT                   
1 37389U 11015C   26189.21688448  .00000128  00000+0  72164-4 0  9999
2 37389  98.3525 165.2396 0012801 283.6651  76.3104 14.25212625790679
GCOM-W1 (SHIZUKU)       
1 38337U 12025A   26188.83893117  .00000338  00000+0  85042-4 0  9995
2 38337  98.2023 129.0824 0001406  65.6364 353.3720 14.57143851752047
NUSTAR                  
1 38358U 12031A   26189.16668980  .00000714  00000+0 -85124-5 0  9991
2 38358   6.0254 236.7654 0007150  56.3357 185.3208 15.09002663  1304
NEOSSAT                 
1 39089U 13009D   26188.97605772  .00000114  00000+0  54162-4 0  9997
2 39089  98.4187   8.5152 0010989 178.2224 181.9003 14.35833751699727
BRITE-AUSTRIA           
1 39091U 13009F   26188.96433517  .00000123  00000+0  56246-4 0  9990
2 39091  98.4005   7.8867 0010319 171.4118 188.7247 14.36550405700033
IRIS                    
1 39197U 13033A   26188.97300069  .00000749  00000+0  91893-4 0  9991
2 39197  97.9322  28.1846 0023006 249.9783 109.8955 14.85926590703461
HISAKI (SPRINT-A)       
1 39253U 13049A   26189.04491240  .00000096  00000+0  39380-4 0  9990
2 39253  29.7195 113.9649 0136921 185.9575 173.9365 13.55546296634252
CASSIOPE                
1 39265U 13055A   26189.14219443  .00029073 -52064-6  31233-3 0  9993
2 39265  80.9135  41.2354 0284673 351.8183   7.8451 15.27061318670867
STSAT-3                 
1 39422U 13066G   26189.15317867  .00001151  00000+0  90303-4 0  9996
2 39422  97.6204 158.7043 0009047 334.5768  25.5011 15.02865574687350
SWARM B                 
1 39451U 13067A   26189.14787965  .00002410  00000+0  85169-4 0  9991
2 39451  87.7454 335.9487 0002583  80.0415 280.1126 15.28685878686440
